{"type": "FeatureCollection", "features": [ {"type": "Feature", "properties": {"norad_id": 66615, "name": "STARLINK-35988", "group": "last-30-days", "lat": 24.905310693603727, "lon": -76.44566869322453, "alt_km": 440.1027445453983, "timestamp": "2025-12-22T23:36:19.409087+00:00", "meta": {"OBJECT_NAME": "STARLINK-35988", "OBJECT_ID": "2025-270AD", "EPOCH": "2025-12-22T02:46:02.178336", "MEAN_MOTION": 15.40720098, "ECCENTRICITY": 4.619e-05, "INCLINATION": 42.9959, "RA_OF_ASC_NODE": 138.4488, "ARG_OF_PERICENTER": 300.2363, "MEAN_ANOMALY": 59.8448, "EPHEMERIS_TYPE": 0, "CLASSIFICATION_TYPE": "U", "NORAD_CAT_ID": 66615, "ELEMENT_SET_NO": 999, "REV_AT_EPOCH": 563, "BSTAR": 0.0010764601, "MEAN_MOTION_DOT": 0.00044958, "MEAN_MOTION_DDOT": 0}, "tle": {"line1": "1 66615U 25270AD  25356.11530299  .00044958  00000+0  10765-2 0  9991", "line2": "2 66615  42.9959 138.4488 0000461 300.2363  59.8448 15.40720098  5636"}}, "geometry": {"type": "Point", "coordinates": [-76.44566869322453, 24.905310693603727]}}, {"type": "Feature", "properties": {"norad_id": 66616, "name": "STARLINK-35391", "group": "last-30-days", "lat": -36.61304039073414, "lon": 6.081042465949063, "alt_km": 446.502851263037, "timestamp": "2025-12-22T23:36:19.409097+00:00", "meta": {"OBJECT_NAME": "STARLINK-35391", "OBJECT_ID": "2025-270AE", "EPOCH": "2025-12-22T00:00:00.998784", "MEAN_MOTION": 15.40663019, "ECCENTRICITY": 0.0001246, "INCLINATION": 43.0002, "RA_OF_ASC_NODE": 138.8723, "ARG_OF_PERICENTER": 281.4949, "MEAN_ANOMALY": 257.7879, "EPHEMERIS_TYPE": 0, "CLASSIFICATION_TYPE": "U", "NORAD_CAT_ID": 66616, "ELEMENT_SET_NO": 999, "REV_AT_EPOCH": 599, "BSTAR": 0.00066448, "MEAN_MOTION_DOT": 0.00027519, "MEAN_MOTION_DDOT": 0}, "tle": {"line1": "1 66616U 25270AE  25356.00001156  .00027519  00000+0  66448-3 0  9999", "line2": "2 66616  43.0002 138.8723 0001246 281.4949 257.7879 15.40663019  5991"}}, "geometry": {"type": "Point", "coordinates": [6.081042465949063, -36.61304039073414]}}, {"type": "Feature", "properties": {"norad_id": 66617, "name": "STARLINK-35940", "group": "last-30-days", "lat": 52.92313302830583, "lon": -123.99957996209525, "alt_km": 438.7539233701027, "timestamp": "2025-12-22T23:36:19.409107+00:00", "meta": {"OBJECT_NAME": "STARLINK-35940", "OBJECT_ID": "2025-271A", "EPOCH": "2025-12-22T02:56:44.032704", "MEAN_MOTION": 15.39674784, "ECCENTRICITY": 0.00015055, "INCLINATION": 53.1598, "RA_OF_ASC_NODE": 142.8709, "ARG_OF_PERICENTER": 86.5375, "MEAN_ANOMALY": 273.5802, "EPHEMERIS_TYPE": 0, "CLASSIFICATION_TYPE": "U", "NORAD_CAT_ID": 66617, "ELEMENT_SET_NO": 999, "REV_AT_EPOCH": 565, "BSTAR": 0.00089646154, "MEAN_MOTION_DOT": 0.00035691, "MEAN_MOTION_DDOT": 0}, "tle": {"line1": "1 66617U 25271A   25356.12273186  .00035691  00000+0  89646-3 0  9993", "line2": "2 66617  53.1598 142.8709 0001505  86.5375 273.5802 15.39674784  5652"}}, "geometry": {"type": "Point", "coordinates": [-123.99957996209525, 52.92313302830583]}}, {"type": "Feature", "properties": {"norad_id": 66618, "name": "STARLINK-35970", "group": "last-30-days", "lat": 19.152219423298533, "lon": 153.3239533103116, "alt_km": 427.27647056289516, "timestamp": "2025-12-22T23:36:19.409119+00:00", "meta": {"OBJECT_NAME": "STARLINK-35970", "OBJECT_ID": "2025-271B", "EPOCH": "2025-12-22T14:00:01.999872", "MEAN_MOTION": 15.45535769, "ECCENTRICITY": 0.00012727, "INCLINATION": 53.1605, "RA_OF_ASC_NODE": 140.1349, "ARG_OF_PERICENTER": 69.1047, "MEAN_ANOMALY": 247.2389, "EPHEMERIS_TYPE": 0, "CLASSIFICATION_TYPE": "U", "NORAD_CAT_ID": 66618, "ELEMENT_SET_NO": 999, "REV_AT_EPOCH": 582, "BSTAR": 0.00028091466, "MEAN_MOTION_DOT": 0.000133, "MEAN_MOTION_DDOT": 0}, "tle": {"line1": "1 66618U 25271B   25356.58335648  .00013300  00000+0  28091-3 0  9996", "line2": "2 66618  53.1605 140.1349 0001272  69.1047 247.2389 15.45535769  5820"}}, "geometry": {"type": "Point", "coordinates": [153.3239533103116, 19.152219423298533]}}, {"type": "Feature", "properties": {"norad_id": 66619, "name": "STARLINK-35951", "group": "last-30-days", "lat": -26.74650837803749, "lon": 116.15411689172369, "alt_km": 451.90964174186684, "timestamp": "2025-12-22T23:36:19.409129+00:00", "meta": {"OBJECT_NAME": "STARLINK-35951", "OBJECT_ID": "2025-271C", "EPOCH": "2025-12-22T14:00:01.999872", "MEAN_MOTION": 15.42351224, "ECCENTRICITY": 0.00018581, "INCLINATION": 53.1607, "RA_OF_ASC_NODE": 140.2427, "ARG_OF_PERICENTER": 101.3739, "MEAN_ANOMALY": 163.2131, "EPHEMERIS_TYPE": 0, "CLASSIFICATION_TYPE": "U", "NORAD_CAT_ID": 66619, "ELEMENT_SET_NO": 999, "REV_AT_EPOCH": 582, "BSTAR": -0.084620653, "MEAN_MOTION_DOT": -0.03235133, "MEAN_MOTION_DDOT": 0}, "tle": {"line1": "1 66619U 25271C   25356.58335648 -.03235133  00000+0 -84621-1 0  9991", "line2": "2 66619  53.1607 140.2427 0001858 101.3739 163.2131 15.42351224  5829"}}, "geometry": {"type": "Point", "coordinates": [116.15411689172369, -26.74650837803749]}}, {"type": "Feature", "properties": {"norad_id": 66620, "name": "STARLINK-35936", "group": "last-30-days", "lat": -52.91912660490356, "lon": 55.72547307078411, "alt_km": 452.372663842576, "timestamp": "2025-12-22T23:36:19.409139+00:00", "meta": {"OBJECT_NAME": "STARLINK-35936", "OBJECT_ID": "2025-271D", "EPOCH": "2025-12-22T13:04:15.271680", "MEAN_MOTION": 15.39615745, "ECCENTRICITY": 7.077e-05, "INCLINATION": 53.1609, "RA_OF_ASC_NODE": 140.5232, "ARG_OF_PERICENTER": 96.159, "MEAN_ANOMALY": 263.9495, "EPHEMERIS_TYPE": 0, "CLASSIFICATION_TYPE": "U", "NORAD_CAT_ID": 66620, "ELEMENT_SET_NO": 999, "REV_AT_EPOCH": 572, "BSTAR": 0.0016364814, "MEAN_MOTION_DOT": 0.00065614, "MEAN_MOTION_DDOT": 0}, "tle": {"line1": "1 66620U 25271D   25356.54462120  .00065614  00000+0  16365-2 0  9996", "line2": "2 66620  53.1609 140.5232 0000707  96.1590 263.9495 15.39615745  5725"}}, "geometry": {"type": "Point", "coordinates": [55.72547307078411, -52.91912660490356]}}, {"type": "Feature", "properties": {"norad_id": 66621, "name": "STARLINK-35847", "group": "last-30-days", "lat": 21.87268735874868, "lon": 155.73983404235975, "alt_km": 426.8440683833769, "timestamp": "2025-12-22T23:36:19.409151+00:00", "meta": {"OBJECT_NAME": "STARLINK-35847", "OBJECT_ID": "2025-271E", "EPOCH": "2025-12-22T14:00:01.999872", "MEAN_MOTION": 15.45534916, "ECCENTRICITY": 0.0001235, "INCLINATION": 53.1605, "RA_OF_ASC_NODE": 140.1275, "ARG_OF_PERICENTER": 70.8473, "MEAN_ANOMALY": 249.0364, "EPHEMERIS_TYPE": 0, "CLASSIFICATION_TYPE": "U", "NORAD_CAT_ID": 66621, "ELEMENT_SET_NO": 999, "REV_AT_EPOCH": 582, "BSTAR": 0.00028611865, "MEAN_MOTION_DOT": 0.00013554, "MEAN_MOTION_DDOT": 0}, "tle": {"line1": "1 66621U 25271E   25356.58335648  .00013554  00000+0  28612-3 0  9990", "line2": "2 66621  53.1605 140.1275 0001235  70.8473 249.0364 15.45534916  5829"}}, "geometry": {"type": "Point", "coordinates": [155.73983404235975, 21.87268735874868]}}, {"type": "Feature", "properties": {"norad_id": 66622, "name": "STARLINK-35950", "group": "last-30-days", "lat": -13.519572637235283, "lon": -31.005335841791606, "alt_km": 450.63745939890214, "timestamp": "2025-12-22T23:36:19.409161+00:00", "meta": {"OBJECT_NAME": "STARLINK-35950", "OBJECT_ID": "2025-271F", "EPOCH": "2025-12-22T00:00:00.998784", "MEAN_MOTION": 15.39697473, "ECCENTRICITY": 0.0001039, "INCLINATION": 53.1594, "RA_OF_ASC_NODE": 143.2448, "ARG_OF_PERICENTER": 74.0942, "MEAN_ANOMALY": 68.4893, "EPHEMERIS_TYPE": 0, "CLASSIFICATION_TYPE": "U", "NORAD_CAT_ID": 66622, "ELEMENT_SET_NO": 999, "REV_AT_EPOCH": 573, "BSTAR": -0.0035089, "MEAN_MOTION_DOT": -0.00138582, "MEAN_MOTION_DDOT": 0}, "tle": {"line1": "1 66622U 25271F   25356.00001156 -.00138582  00000+0 -35089-2 0  9998", "line2": "2 66622  53.1594 143.2448 0001039  74.0942  68.4893 15.39697473  5733"}}, "geometry": {"type": "Point", "coordinates": [-31.005335841791606, -13.519572637235283]}}, {"type": "Feature", "properties": {"norad_id": 66623, "name": "STARLINK-35920", "group": "last-30-days", "lat": 26.7670978036182, "lon": -63.51336868953694, "alt_km": 443.793577603371, "timestamp": "2025-12-22T23:36:19.409175+00:00", "meta": {"OBJECT_NAME": "STARLINK-35920", "OBJECT_ID": "2025-271G", "EPOCH": "2025-12-22T13:37:41.226528", "MEAN_MOTION": 15.39650604, "ECCENTRICITY": 7.073e-05, "INCLINATION": 53.1593, "RA_OF_ASC_NODE": 140.6671, "ARG_OF_PERICENTER": 71.5086, "MEAN_ANOMALY": 288.5996, "EPHEMERIS_TYPE": 0, "CLASSIFICATION_TYPE": "U", "NORAD_CAT_ID": 66623, "ELEMENT_SET_NO": 999, "REV_AT_EPOCH": 572, "BSTAR": 0.00090520981, "MEAN_MOTION_DOT": 0.00036016, "MEAN_MOTION_DDOT": 0}, "tle": {"line1": "1 66623U 25271G   25356.56783827  .00036016  00000+0  90521-3 0  9992", "line2": "2 66623  53.1593 140.6671 0000707  71.5086 288.5996 15.39650604  5727"}}, "geometry": {"type": "Point", "coordinates": [-63.51336868953694, 26.7670978036182]}}, {"type": "Feature", "properties": {"norad_id": 66624, "name": "STARLINK-35927", "group": "last-30-days", "lat": -13.972275119528906, "lon": 127.5699124070736, "alt_km": 432.2011237085608, "timestamp": "2025-12-22T23:36:19.409185+00:00", "meta": {"OBJECT_NAME": "STARLINK-35927", "OBJECT_ID": "2025-271H", "EPOCH": "2025-12-22T14:22:10.220160", "MEAN_MOTION": 15.45552652, "ECCENTRICITY": 0.00010088, "INCLINATION": 53.1605, "RA_OF_ASC_NODE": 140.1509, "ARG_OF_PERICENTER": 78.4785, "MEAN_ANOMALY": 281.6336, "EPHEMERIS_TYPE": 0, "CLASSIFICATION_TYPE": "U", "NORAD_CAT_ID": 66624, "ELEMENT_SET_NO": 999, "REV_AT_EPOCH": 573, "BSTAR": 0.0014460605, "MEAN_MOTION_DOT": 0.00070807, "MEAN_MOTION_DDOT": 0}, "tle": {"line1": "1 66624U 25271H   25356.59872940  .00070807  00000+0  14461-2 0  9995", "line2": "2 66624  53.1605 140.1509 0001008  78.4785 281.6336 15.45552652  5738"}}, "geometry": {"type": "Point", "coordinates": [127.5699124070736, -13.972275119528906]}}]}